SL-14 R/B               
1 16792U 86046B   26087.66664105  .00000541  00000+0  59399-4 0  9994
2 16792  82.4802  62.2462 0023535 161.6008 198.6065 14.85608404129224
SL-14 R/B               
1 16882U 86055B   26087.81711267  .00000465  00000+0  50774-4 0  9996
2 16882  82.5170 108.6912 0017294 268.8257 264.1432 14.85659155122206
AJISAI (EGS)            
1 16908U 86061A   26087.90303141 -.00000097  00000+0  23292-5 0  9998
2 16908  50.0112  34.2653 0011331 336.5299  66.7187 12.44515644470398
SL-14 R/B               
1 17567U 87024B   26087.69312237  .00000530  00000+0  57533-4 0  9997
2 17567  82.5252  74.8970 0017797 192.9669 167.1092 14.86149901 90952
COSMOS 1833             
1 17589U 87027A   26087.83194493 -.00000277  00000+0 -12235-3 0  9991
2 17589  70.9172 285.7843 0023280 186.3632 173.7197 14.13047471 13022
SL-16 R/B               
1 17590U 87027B   26087.82066957 -.00000020  00000+0  14025-4 0  9990
2 17590  71.0014 236.1772 0002858  95.8585 264.2864 14.17165650 18050
SL-14 R/B               
1 17912U 87038B   26087.56312238  .00000505  00000+0  55608-4 0  9996
2 17912  82.4977 279.0230 0020746 101.4600 258.8947 14.85385999 82030
COSMOS 1844             
1 17973U 87041A   26087.84674930  .00000380  00000+0  22202-3 0  9992
2 17973  70.9014 353.7700 0031039 349.9016  10.1478 14.14556629  6294
SL-14 R/B               
1 18153U 87055B   26087.73870890  .00000442  00000+0  48162-4 0  9992
2 18153  82.5007 331.0810 0019528 313.7911  46.1689 14.85648065 72761
COSMOS 1867             
1 18187U 87060A   26087.86276221 -.00000011  00000+0  33519-4 0  9990
2 18187  65.0093 253.0082 0014815 279.7795  80.1617 14.31505945 22683
SL-14 R/B               
1 18749U 88001B   26087.80274765  .00000521  00000+0  57288-4 0  9999
2 18749  82.5161 177.3895 0018332 170.5806 189.5757 14.85548571 44860
COSMOS 1933             
1 18958U 88020A   26087.77362977  .00004706  00000+0  22893-3 0  9993
2 18958  82.5121 232.0257 0005186 124.8843 235.2879 15.18160014 53127
