CCSDS_OMM_VERS = 2.0
CREATION_DATE  = 
ORIGINATOR     = 

OBJECT_NAME    = SL-14 R/B
OBJECT_ID      = 1986-046B
CENTER_NAME    = EARTH
REF_FRAME      = TEME
TIME_SYSTEM    = UTC
MEAN_ELEMENT_THEORY = SGP/SGP4

EPOCH          = 2026-03-28T15:59:57.786720
MEAN_MOTION    = 14.85608404
ECCENTRICITY   = .0023535
INCLINATION    = 82.4802
RA_OF_ASC_NODE = 62.2462
ARG_OF_PERICENTER = 161.6008
MEAN_ANOMALY   = 198.6065

EPHEMERIS_TYPE = 0
CLASSIFICATION_TYPE = U
NORAD_CAT_ID   = 16792
ELEMENT_SET_NO = 999
REV_AT_EPOCH   = 12922
BSTAR          = .59399E-4
MEAN_MOTION_DOT = .541E-5
MEAN_MOTION_DDOT = 0

CCSDS_OMM_VERS = 2.0
CREATION_DATE  = 
ORIGINATOR     = 

OBJECT_NAME    = SL-14 R/B
OBJECT_ID      = 1986-055B
CENTER_NAME    = EARTH
REF_FRAME      = TEME
TIME_SYSTEM    = UTC
MEAN_ELEMENT_THEORY = SGP/SGP4

EPOCH          = 2026-03-28T19:36:38.534688
MEAN_MOTION    = 14.85659155
ECCENTRICITY   = .0017294
INCLINATION    = 82.5170
RA_OF_ASC_NODE = 108.6912
ARG_OF_PERICENTER = 268.8257
MEAN_ANOMALY   = 264.1432

EPHEMERIS_TYPE = 0
CLASSIFICATION_TYPE = U
NORAD_CAT_ID   = 16882
ELEMENT_SET_NO = 999
REV_AT_EPOCH   = 12220
BSTAR          = .50774E-4
MEAN_MOTION_DOT = .465E-5
MEAN_MOTION_DDOT = 0

CCSDS_OMM_VERS = 2.0
CREATION_DATE  = 
ORIGINATOR     = 

OBJECT_NAME    = AJISAI (EGS)
OBJECT_ID      = 1986-061A
CENTER_NAME    = EARTH
REF_FRAME      = TEME
TIME_SYSTEM    = UTC
MEAN_ELEMENT_THEORY = SGP/SGP4

EPOCH          = 2026-03-28T21:40:21.913824
MEAN_MOTION    = 12.44515644
ECCENTRICITY   = .0011331
INCLINATION    = 50.0112
RA_OF_ASC_NODE = 34.2653
ARG_OF_PERICENTER = 336.5299
MEAN_ANOMALY   = 66.7187

EPHEMERIS_TYPE = 0
CLASSIFICATION_TYPE = U
NORAD_CAT_ID   = 16908
ELEMENT_SET_NO = 999
REV_AT_EPOCH   = 47039
BSTAR          = .23292E-5
MEAN_MOTION_DOT = -.97E-6
MEAN_MOTION_DDOT = 0

CCSDS_OMM_VERS = 2.0
CREATION_DATE  = 
ORIGINATOR     = 

OBJECT_NAME    = SL-14 R/B
OBJECT_ID      = 1987-024B
CENTER_NAME    = EARTH
REF_FRAME      = TEME
TIME_SYSTEM    = UTC
MEAN_ELEMENT_THEORY = SGP/SGP4

EPOCH          = 2026-03-28T16:38:05.772768
MEAN_MOTION    = 14.86149901
ECCENTRICITY   = .0017797
INCLINATION    = 82.5252
RA_OF_ASC_NODE = 74.8970
ARG_OF_PERICENTER = 192.9669
MEAN_ANOMALY   = 167.1092

EPHEMERIS_TYPE = 0
CLASSIFICATION_TYPE = U
NORAD_CAT_ID   = 17567
ELEMENT_SET_NO = 999
REV_AT_EPOCH   = 9095
BSTAR          = .57533E-4
MEAN_MOTION_DOT = .53E-5
MEAN_MOTION_DDOT = 0

CCSDS_OMM_VERS = 2.0
CREATION_DATE  = 
ORIGINATOR     = 

OBJECT_NAME    = COSMOS 1833
OBJECT_ID      = 1987-027A
CENTER_NAME    = EARTH
REF_FRAME      = TEME
TIME_SYSTEM    = UTC
MEAN_ELEMENT_THEORY = SGP/SGP4

EPOCH          = 2026-03-28T19:58:00.041952
MEAN_MOTION    = 14.13047471
ECCENTRICITY   = .002328
INCLINATION    = 70.9172
RA_OF_ASC_NODE = 285.7843
ARG_OF_PERICENTER = 186.3632
MEAN_ANOMALY   = 173.7197

EPHEMERIS_TYPE = 0
CLASSIFICATION_TYPE = U
NORAD_CAT_ID   = 17589
ELEMENT_SET_NO = 999
REV_AT_EPOCH   = 1302
BSTAR          = -.12235E-3
MEAN_MOTION_DOT = -.277E-5
MEAN_MOTION_DDOT = 0

CCSDS_OMM_VERS = 2.0
CREATION_DATE  = 
ORIGINATOR     = 

OBJECT_NAME    = SL-16 R/B
OBJECT_ID      = 1987-027B
CENTER_NAME    = EARTH
REF_FRAME      = TEME
TIME_SYSTEM    = UTC
MEAN_ELEMENT_THEORY = SGP/SGP4

EPOCH          = 2026-03-28T19:41:45.850848
MEAN_MOTION    = 14.17165650
ECCENTRICITY   = .0002858
INCLINATION    = 71.0014
RA_OF_ASC_NODE = 236.1772
ARG_OF_PERICENTER = 95.8585
MEAN_ANOMALY   = 264.2864

EPHEMERIS_TYPE = 0
CLASSIFICATION_TYPE = U
NORAD_CAT_ID   = 17590
ELEMENT_SET_NO = 999
REV_AT_EPOCH   = 1805
BSTAR          = .14025E-4
MEAN_MOTION_DOT = -.2E-6
MEAN_MOTION_DDOT = 0

CCSDS_OMM_VERS = 2.0
CREATION_DATE  = 
ORIGINATOR     = 

OBJECT_NAME    = SL-14 R/B
OBJECT_ID      = 1987-038B
CENTER_NAME    = EARTH
REF_FRAME      = TEME
TIME_SYSTEM    = UTC
MEAN_ELEMENT_THEORY = SGP/SGP4

EPOCH          = 2026-03-28T13:30:53.773632
MEAN_MOTION    = 14.85385999
ECCENTRICITY   = .0020746
INCLINATION    = 82.4977
RA_OF_ASC_NODE = 279.0230
ARG_OF_PERICENTER = 101.4600
MEAN_ANOMALY   = 258.8947

EPHEMERIS_TYPE = 0
CLASSIFICATION_TYPE = U
NORAD_CAT_ID   = 17912
ELEMENT_SET_NO = 999
REV_AT_EPOCH   = 8203
BSTAR          = .55608E-4
MEAN_MOTION_DOT = .505E-5
MEAN_MOTION_DDOT = 0

CCSDS_OMM_VERS = 2.0
CREATION_DATE  = 
ORIGINATOR     = 

OBJECT_NAME    = COSMOS 1844
OBJECT_ID      = 1987-041A
CENTER_NAME    = EARTH
REF_FRAME      = TEME
TIME_SYSTEM    = UTC
MEAN_ELEMENT_THEORY = SGP/SGP4

EPOCH          = 2026-03-28T20:19:19.139520
MEAN_MOTION    = 14.14556629
ECCENTRICITY   = .0031039
INCLINATION    = 70.9014
RA_OF_ASC_NODE = 353.7700
ARG_OF_PERICENTER = 349.9016
MEAN_ANOMALY   = 10.1478

EPHEMERIS_TYPE = 0
CLASSIFICATION_TYPE = U
NORAD_CAT_ID   = 17973
ELEMENT_SET_NO = 999
REV_AT_EPOCH   = 629
BSTAR          = .22202E-3
MEAN_MOTION_DOT = .38E-5
MEAN_MOTION_DDOT = 0

CCSDS_OMM_VERS = 2.0
CREATION_DATE  = 
ORIGINATOR     = 

OBJECT_NAME    = SL-14 R/B
OBJECT_ID      = 1987-055B
CENTER_NAME    = EARTH
REF_FRAME      = TEME
TIME_SYSTEM    = UTC
MEAN_ELEMENT_THEORY = SGP/SGP4

EPOCH          = 2026-03-28T17:43:44.448960
MEAN_MOTION    = 14.85648065
ECCENTRICITY   = .0019528
INCLINATION    = 82.5007
RA_OF_ASC_NODE = 331.0810
ARG_OF_PERICENTER = 313.7911
MEAN_ANOMALY   = 46.1689

EPHEMERIS_TYPE = 0
CLASSIFICATION_TYPE = U
NORAD_CAT_ID   = 18153
ELEMENT_SET_NO = 999
REV_AT_EPOCH   = 7276
BSTAR          = .48162E-4
MEAN_MOTION_DOT = .442E-5
MEAN_MOTION_DDOT = 0

CCSDS_OMM_VERS = 2.0
CREATION_DATE  = 
ORIGINATOR     = 

OBJECT_NAME    = COSMOS 1867
OBJECT_ID      = 1987-060A
CENTER_NAME    = EARTH
REF_FRAME      = TEME
TIME_SYSTEM    = UTC
MEAN_ELEMENT_THEORY = SGP/SGP4

EPOCH          = 2026-03-28T20:42:22.654944
MEAN_MOTION    = 14.31505945
ECCENTRICITY   = .0014815
INCLINATION    = 65.0093
RA_OF_ASC_NODE = 253.0082
ARG_OF_PERICENTER = 279.7795
MEAN_ANOMALY   = 80.1617

EPHEMERIS_TYPE = 0
CLASSIFICATION_TYPE = U
NORAD_CAT_ID   = 18187
ELEMENT_SET_NO = 999
REV_AT_EPOCH   = 2268
BSTAR          = .33519E-4
MEAN_MOTION_DOT = -.11E-6
MEAN_MOTION_DDOT = 0

CCSDS_OMM_VERS = 2.0
CREATION_DATE  = 
ORIGINATOR     = 

OBJECT_NAME    = SL-14 R/B
OBJECT_ID      = 1988-001B
CENTER_NAME    = EARTH
REF_FRAME      = TEME
TIME_SYSTEM    = UTC
MEAN_ELEMENT_THEORY = SGP/SGP4

EPOCH          = 2026-03-28T19:15:57.396960
MEAN_MOTION    = 14.85548571
ECCENTRICITY   = .0018332
INCLINATION    = 82.5161
RA_OF_ASC_NODE = 177.3895
ARG_OF_PERICENTER = 170.5806
MEAN_ANOMALY   = 189.5757

EPHEMERIS_TYPE = 0
CLASSIFICATION_TYPE = U
NORAD_CAT_ID   = 18749
ELEMENT_SET_NO = 999
REV_AT_EPOCH   = 4486
BSTAR          = .57288E-4
MEAN_MOTION_DOT = .521E-5
MEAN_MOTION_DDOT = 0

CCSDS_OMM_VERS = 2.0
CREATION_DATE  = 
ORIGINATOR     = 

OBJECT_NAME    = COSMOS 1933
OBJECT_ID      = 1988-020A
CENTER_NAME    = EARTH
REF_FRAME      = TEME
TIME_SYSTEM    = UTC
MEAN_ELEMENT_THEORY = SGP/SGP4

EPOCH          = 2026-03-28T18:34:01.612128
MEAN_MOTION    = 15.18160014
ECCENTRICITY   = .0005186
INCLINATION    = 82.5121
RA_OF_ASC_NODE = 232.0257
ARG_OF_PERICENTER = 124.8843
MEAN_ANOMALY   = 235.2879

EPHEMERIS_TYPE = 0
CLASSIFICATION_TYPE = U
NORAD_CAT_ID   = 18958
ELEMENT_SET_NO = 999
REV_AT_EPOCH   = 5312
BSTAR          = .22893E-3
MEAN_MOTION_DOT = .4706E-4
MEAN_MOTION_DDOT = 0

